QIANFAN-65              
1 62795U 25016L   25358.87702331  .00000115  00000+0  15978-3 0  9996
2 62795  88.9765 101.8055 0012308 310.9507  49.0578 13.50981396 48889
QIANFAN-66              
1 62796U 25016M   25358.83179171  .00000178  00000+0  25698-3 0  9992
2 62796  88.9785 101.7826 0013341 305.8290  54.1621 13.50980740 48920
QIANFAN-67              
1 62797U 25016N   25358.83600619  .00000180  00000+0  26073-3 0  9990
2 62797  88.9775 101.8066 0013388 313.5990  46.4049 13.50984883 48897
QIANFAN-68              
1 62798U 25016P   25358.90174376  .00000178  00000+0  25700-3 0  9998
2 62798  88.9779 101.8455 0013429 311.4152  48.5844 13.50987336 48888
QIANFAN-69              
1 62799U 25016Q   25358.84414737  .00000181  00000+0  26190-3 0  9998
2 62799  88.9758 101.7182 0014197 312.7299  47.2656 13.50990071 48912
QIANFAN-70              
1 62800U 25016R   25358.86065530  .00000180  00000+0  26068-3 0  9999
2 62800  88.9779 101.8576 0013694 301.8997  58.0822 13.50981024 48879
QIANFAN-71              
1 62801U 25016S   25358.85646101  .00000175  00000+0  25219-3 0  9999
2 62801  88.9772 101.8367 0014155 316.6339  43.3698 13.50980577 48878
QIANFAN-72              
1 62802U 25016T   25358.87291391  .00000190  00000+0  27611-3 0  9994
2 62802  88.9763 101.8472 0017550 323.8341  36.1622 13.50980329 48862
